      2.10          N: GNSS NAV DATA                        RINEX VERSION / TYPE
fic2rin                                 10/05/2022 00:17:37 PGM / RUN BY / DATE
                                                            END OF HEADER
23 22 10  4 12  0  0.0 -.733882188797D-06 -.341060513165D-12  .000000000000D+00
     .128000000000D+03 -.103468750000D+03  .450161608181D-08  .216599830609D+01
    -.529177486897D-05  .273478776217D-02  .507198274136D-05  .515363065720D+04
     .216000000000D+06  .111758708954D-07  .124531702445D+01  .163912773132D-06
     .970182091887D+00  .286218750000D+03  .302482844708D+01 -.823248577322D-08
    -.105004373854D-09  .100000000000D+01  .223000000000D+04  .000000000000D+00
     .240000000000D+01  .000000000000D+00 -.838190317154D-08  .896000000000D+03
     .208800000000D+06  .400000000000D+01
18 22 10  4 12  0  0.0  .264984555542D-04 -.131876731757D-10  .000000000000D+00
     .720000000000D+02  .355000000000D+02  .443054169270D-08 -.309002767910D+01
     .202283263206D-05  .288989127148D-02  .328756868839D-05  .515372363853D+04
     .216000000000D+06 -.502914190292D-07  .245837262372D+00 -.894069671631D-07
     .972751249600D+00  .325031250000D+03  .308538488621D+01 -.819855578847D-08
     .285369029623D-09  .100000000000D+01  .223000000000D+04  .000000000000D+00
     .240000000000D+01  .000000000000D+00 -.838190317154D-08  .584000000000D+03
     .208800000000D+06  .400000000000D+01
28 22 10  4 12  0  0.0  .332886353135D-03 -.397903932026D-11  .000000000000D+00
     .600000000000D+02  .105937500000D+02  .449840166220D-08 -.667468037511D+00
     .553205609322D-06  .164429366123D-01  .811740756035D-05  .515365423393D+04
     .216000000000D+06 -.298023223877D-06 -.177498963355D+01  .726431608200D-07
     .966530266539D+00  .231375000000D+03 -.125621582705D+01 -.820712757409D-08
    -.223580741607D-09  .100000000000D+01  .223000000000D+04  .000000000000D+00
     .240000000000D+01  .630000000000D+02 -.111758708954D-07  .600000000000D+02
     .208800000000D+06  .400000000000D+01
3  22 10  4 11 59 44.0 -.360371079296D-03 -.500222085975D-11  .000000000000D+00
     .150000000000D+02 -.109000000000D+03  .427196365872D-08  .182727455538D+01
    -.575371086597D-05  .450203299988D-02  .454485416412D-05  .515354751587D+04
     .215984000000D+06 -.558793544769D-07  .127405021600D+01 -.521540641785D-07
     .975296892367D+00  .299968750000D+03  .106909441294D+01 -.807569352791D-08
    -.126076680171D-09  .100000000000D+01  .223000000000D+04  .000000000000D+00
     .240000000000D+01  .000000000000D+00  .186264514923D-08  .150000000000D+02
     .211230000000D+06  .400000000000D+01
2  22 10  4 11 59 44.0 -.643694773316D-03  .147792889038D-11  .000000000000D+00
     .500000000000D+01  .449375000000D+02  .435946730360D-08  .235991778640D+01
     .224076211452D-05  .200141422683D-01  .329874455929D-05  .515489842606D+04
     .215984000000D+06  .273808836937D-06  .147466221006D+00 -.707805156708D-07
     .966842102157D+00  .315093750000D+03 -.139214433062D+01 -.785639867911D-08
     .871464871438D-10  .100000000000D+01  .223000000000D+04  .000000000000D+00
     .240000000000D+01  .000000000000D+00 -.172294676304D-07  .500000000000D+01
     .212100000000D+06  .400000000000D+01
3  22 10  4 13 59 44.0 -.360406935215D-03 -.500222085975D-11  .000000000000D+00
     .210000000000D+02 -.115312500000D+03  .434803825610D-08  .287771067122D+01
    -.597350299358D-05  .450298807118D-02  .475719571114D-05  .515354519844D+04
     .223184000000D+06 -.931322574615D-08  .127399208842D+01 -.894069671631D-07
     .975296038023D+00  .293093750000D+03  .106891540005D+01 -.807283626603D-08
    -.112147528538D-09  .100000000000D+01  .223000000000D+04  .000000000000D+00
     .240000000000D+01  .000000000000D+00  .186264514923D-08  .210000000000D+02
     .216000000000D+06  .400000000000D+01
2  22 10  4 13 59 44.0 -.643684063107D-03  .147792889038D-11  .000000000000D+00
     .160000000000D+02  .516875000000D+02  .430232206613D-08 -.287387028451D+01
     .264309346676D-05  .200130481971D-01  .362657010555D-05  .515490066719D+04
     .223184000000D+06  .249594449997D-06  .147408355281D+00  .247731804848D-06
     .966843452431D+00  .306906250000D+03 -.139211068496D+01 -.785318425950D-08
     .326799326789D-09  .100000000000D+01  .223000000000D+04  .000000000000D+00
     .240000000000D+01  .000000000000D+00 -.172294676304D-07  .160000000000D+02
     .216000000000D+06  .400000000000D+01
1  22 10  4 14  0  0.0  .273013021797D-03 -.625277607469D-11  .000000000000D+00
     .480000000000D+02  .485312500000D+02  .405481175633D-08 -.230285325081D+01
     .231899321079D-05  .120070483536D-01  .302493572235D-05  .515365814400D+04
     .223200000000D+06  .109896063805D-06  .241364561506D+00 -.109896063805D-06
     .988913501245D+00  .335187500000D+03  .944522091845D+00 -.793854495798D-08
     .387516141603D-09  .100000000000D+01  .223000000000D+04  .000000000000D+00
     .240000000000D+01  .000000000000D+00  .512227416039D-08  .480000000000D+02
     .216000000000D+06  .400000000000D+01
12 22 10  4 14  0  0.0 -.288308598101D-03 -.443378667114D-11  .000000000000D+00
     .300000000000D+02  .126250000000D+02  .431125100948D-08  .264184350716D+01
     .670552253723D-06  .851137773134D-02  .761821866035D-05  .515372824097D+04
     .223200000000D+06  .707805156708D-07 -.179690187007D+01 -.186264514923D-08
     .967514083337D+00  .232656250000D+03  .131582771556D+01 -.777960976626D-08
    -.385730352932D-09  .100000000000D+01  .223000000000D+04  .000000000000D+00
     .240000000000D+01  .000000000000D+00 -.125728547573D-07  .300000000000D+02
     .216000000000D+06  .400000000000D+01
31 22 10  4 14  0  0.0 -.195627100766D-03 -.136424205266D-11  .000000000000D+00
     .500000000000D+02  .248750000000D+02  .483805866742D-08  .281904886754D+01
     .110827386379D-05  .105860617477D-01  .764615833759D-05  .515358703613D+04
     .223200000000D+06 -.102445483208D-06 -.289187984473D+01 -.745058059692D-07
     .955125929194D+00  .231093750000D+03  .437494192121D+00 -.795533137148D-08
     .960754304987D-10  .100000000000D+01  .223000000000D+04  .000000000000D+00
     .240000000000D+01  .000000000000D+00 -.135041773319D-07  .500000000000D+02
     .216000000000D+06  .400000000000D+01
16 22 10  4 14  0  0.0 -.525643117726D-03 -.682121026330D-12  .000000000000D+00
     .270000000000D+02  .258437500000D+02  .439625455022D-08  .860652775997D+00
     .154599547386D-05  .128234004369D-01  .763125717640D-05  .515371728134D+04
     .223200000000D+06 -.124797224998D-06 -.177843941967D+01  .968575477600D-07
     .967331130802D+00  .237875000000D+03  .732582661660D+00 -.805390690612D-08
    -.551094383865D-09  .100000000000D+01  .223000000000D+04  .000000000000D+00
     .240000000000D+01  .000000000000D+00 -.102445483208D-07  .270000000000D+02
     .216000000000D+06  .400000000000D+01
9  22 10  4 14  0  0.0 -.287715345621D-03  .500222085975D-11  .000000000000D+00
     .290000000000D+02 -.738125000000D+02  .450447334368D-08  .358888436504D+00
    -.385567545891D-05  .254558853339D-02  .107567757368D-04  .515375383568D+04
     .223200000000D+06 -.372529029846D-07  .230095115594D+01  .465661287308D-07
     .955001371960D+00  .168843750000D+03  .191297112759D+01 -.793104464556D-08
     .168578450541D-09  .100000000000D+01  .223000000000D+04  .000000000000D+00
     .240000000000D+01  .000000000000D+00  .139698386192D-08  .290000000000D+02
     .216000000000D+06  .400000000000D+01
